O3B MPOWER F1           
1 54755U 22174A   24219.70271814 -.00000027  00000+0  00000+0 0  9998
2 54755   0.0586 347.7780 0006735 143.9438 207.7361  5.00113948 31366
